[{"OBJECT_NAME":"STARLINK-1132","OBJECT_ID":"2020-006A","EPOCH":"2026-03-09T21:59:55.594752","MEAN_MOTION":15.43542258,"ECCENTRICITY":0.00043223,"INCLINATION":53.1566,"RA_OF_ASC_NODE":252.8812,"ARG_OF_PERICENTER":195.3085,"MEAN_ANOMALY":164.7791,"EPHEMERIS_TYPE":0,"CLASSIFICATION_TYPE":"U","NORAD_CAT_ID":45044,"ELEMENT_SET_NO":999,"REV_AT_EPOCH":33696,"BSTAR":0.0010443803,"MEAN_MOTION_DOT":0.00047496,"MEAN_MOTION_DDOT":0},{"OBJECT_NAME":"LEMUR-2-SPECIAL-K","OBJECT_ID":"2021-034F","EPOCH":"2026-03-09T04:45:37.225728","MEAN_MOTION":15.45301627,"ECCENTRICITY":0.000161,"INCLINATION":97.5708,"RA_OF_ASC_NODE":149.4876,"ARG_OF_PERICENTER":218.063,"MEAN_ANOMALY":142.0505,"EPHEMERIS_TYPE":0,"CLASSIFICATION_TYPE":"U","NORAD_CAT_ID":48273,"ELEMENT_SET_NO":999,"REV_AT_EPOCH":26616,"BSTAR":0.0015003496,"MEAN_MOTION_DOT":0.0007194,"MEAN_MOTION_DDOT":0}]
